0 IRIDIUM 33 DEB
1 35627U 97051QZ  13280.86323892  .00002879  00000-0  10608-2 0  3885
2 35627 086.3722 135.8358 0040650 359.5752 000.5274 14.31816660230185
0 IRIDIUM 33 DEB
1 35627U 97051QZ  13282.33082305  .00002560  00000-0  94233-3 0  3895
2 35627 086.3715 135.2212 0041014 354.9606 005.0947 14.31822221230392
0 IRIDIUM 33 DEB
1 35627U 97051QZ  13285.33584823  .00002985  00000-0  11001-2 0  3926
2 35627 086.3729 133.9622 0039274 345.3036 014.7395 14.31843591230828
0 IRIDIUM 33 DEB
1 35627U 97051QZ  13286.31421200  .00003381  00000-0  12454-2 0  3939
2 35627 086.3695 133.5547 0041416 343.2696 016.7230 14.31853668230963
0 IRIDIUM 33 DEB
1 35627U 97051QZ  13287.29257330  .00004017  00000-0  14815-2 0  3949
2 35627 086.3710 133.1406 0040043 338.6442 021.3621 14.31865798231103
0 IRIDIUM 33 DEB
1 35627U 97051QZ  13288.89985585  .00004105  00000-0  15138-2 0  3954
2 35627 086.3714 132.4658 0040202 333.1541 026.7592 14.31879659231337
0 IRIDIUM 33 DEB
1 35627U 97051QZ  13289.31914706  .00004293  00000-0  15841-2 0  3969
2 35627 086.3737 132.2890 0038989 330.9861 028.9528 14.31885486231391
0 IRIDIUM 33 DEB
1 35627U 97051QZ  13290.85652780  .00004571  00000-0  16860-2 0  3973
2 35627 086.3718 131.6443 0039801 326.5958 033.2715 14.31901822231614
0 IRIDIUM 33 DEB
1 35627U 97051QZ  13291.83485398  .00004821  00000-0  17779-2 0  3980
2 35627 086.3708 131.2316 0040048 323.1299 036.7158 14.31913488231759
0 IRIDIUM 33 DEB
1 35627U 97051QZ  13293.30233502  .00005145  00000-0  18970-2 0  3997
2 35627 086.3676 130.6198 0040170 320.3335 039.4903 14.31930622231960
0 IRIDIUM 33 DEB
1 35627U 97051QZ  13294.83967211  .00005280  00000-0  19467-2 0  4002
2 35627 086.3703 129.9714 0039512 313.7967 045.9941 14.31947752232182
